SENTINEL-6              
1 46984U 20086A   23360.90306882 -.00000023  00000+0  16609-3 0  9997
2 46984  66.0393 211.1819 0007638 269.1117  90.9023 12.80929433144636
